NORAD_CAT_ID,OBJECT_NAME,OBJECT_TYPE,EPOCH,MEAN_MOTION,ECCENTRICITY,INCLINATION,RA_OF_ASC_NODE,ARG_OF_PERICENTER,MEAN_ANOMALY,BSTAR,MEAN_MOTION_DOT,MEAN_MOTION_DDOT,TLE_LINE0,TLE_LINE1,TLE_LINE2,SEMIMAJOR_AXIS,PERIOD,APOGEE,PERIGEE,DECAYED
52344.0,STARLINK-3851,PAYLOAD,2022-09-22 07:37:35,15.08847368,0.0001647,53.2151,115.1071,50.0759,310.0377,2.0584e-05,4e-07,0.0,0 STARLINK-3851,1 52344U 22045P   22265.31777464  .00000040  00000-0  20584-4 0  9994,2 52344  53.2151 115.1071 0001647  50.0759 310.0377 15.08847368 24903,6917.858,95.437,540.862,538.5830000000002,0.0
52344.0,STARLINK-3851,PAYLOAD,2022-09-22 20:20:41,15.08837883,0.0001758,53.2172,112.7268,48.8258,311.2886,-7.8037e-05,-1.53e-05,0.0,0 STARLINK-3851,1 52344U 22045P   22265.84770349 -.00001530  00000-0 -78037-4 0  9990,2 52344  53.2172 112.7268 0001758  48.8258 311.2886 15.08837883 24986,6917.887,95.438,540.9680000000002,538.536,0.0
52344.0,STARLINK-3851,PAYLOAD,2022-09-23 01:06:50,15.08853577,0.0001774999999999,53.2165,111.8351,51.4279,308.6872,-0.00025278,-4.31e-05,0.0,0 STARLINK-3851,1 52344U 22045P   22266.04641966 -.00004310  00000-0 -25278-3 0  9992,2 52344  53.2165 111.8351 0001775  51.4279 308.6872 15.08853577 25011,6917.839,95.437,540.932,538.476,0.0
52344.0,STARLINK-3851,PAYLOAD,2022-09-23 20:11:28,15.08839785,0.0001932,53.2167,108.2683,40.302,319.8115,-1.1078e-05,-4.64e-06,0.0,0 STARLINK-3851,1 52344U 22045P   22266.84130120 -.00000464  00000-0 -11078-4 0  9995,2 52344  53.2167 108.2683 0001932  40.3020 319.8115 15.08839785 25139,6917.880999999999,95.438,541.0830000000002,538.41,0.0
52344.0,STARLINK-3851,PAYLOAD,2022-09-23 23:22:15,15.08832758,0.0001972,53.2159,107.6731,47.4683,312.6475,-4.7183e-05,-1.039e-05,0.0,0 STARLINK-3851,1 52344U 22045P   22266.97378700 -.00001039  00000-0 -47183-4 0  9992,2 52344  53.2159 107.6731 0001972  47.4683 312.6475 15.08832758 25159,6917.903,95.438,541.132,538.403,0.0
52344.0,STARLINK-3851,PAYLOAD,2022-09-24 20:02:15,15.0883526,0.0001985,53.2171,103.8064,49.0803,311.036,4.4615e-05,4.22e-06,0.0,0 STARLINK-3851,1 52344U 22045P   22267.83490513  .00000422  00000-0  44615-4 0  9995,2 52344  53.2171 103.8064 0001985  49.0803 311.0360 15.08835260 25287,6917.895,95.438,541.133,538.387,0.0
52344.0,STARLINK-3851,PAYLOAD,2022-09-24 23:13:02,15.08835885,0.0001973,53.2168,103.2127,48.0737,312.0423,4.2567e-05,3.89e-06,0.0,0 STARLINK-3851,1 52344U 22045P   22267.96738522  .00000389  00000-0  42567-4 0  9990,2 52344  53.2168 103.2127 0001973  48.0737 312.0423 15.08835885 25306,6917.893,95.438,541.123,538.393,0.0
52344.0,STARLINK-3851,PAYLOAD,2022-09-25 18:17:40,15.08829857,0.00018,53.2172,99.6422,45.2475,314.8663,-1.3604e-05,-5.05e-06,0.0,0 STARLINK-3851,1 52344U 22045P   22268.76227330 -.00000505  00000-0 -13604-4 0  9991,2 52344  53.2172  99.6422 0001800  45.2475 314.8663 15.08829857 25425,6917.911,95.438,541.0219999999998,538.531,0.0
52344.0,STARLINK-3851,PAYLOAD,2022-09-25 23:03:49,15.08831679,0.0002125,53.2174,98.75,45.132,314.9844,-2.5763e-05,-6.98e-06,0.0,0 STARLINK-3851,1 52344U 22045P   22268.96099411 -.00000698  00000-0 -25763-4 0  9992,2 52344  53.2174  98.7500 0002125  45.1320 314.9844 15.08831679 25453,6917.906,95.438,541.241,538.3009999999998,0.0
52344.0,STARLINK-3851,PAYLOAD,2022-09-26 19:43:51,15.08831711,0.0002109,53.2178,94.8855,50.2642,309.8536,-2.4764e-05,-6.82e-06,0.0,0 STARLINK-3851,1 52344U 22045P   22269.82211988 -.00000682  00000-0 -24764-4 0  9996,2 52344  53.2178  94.8855 0002109  50.2642 309.8536 15.08831711 25585,6917.906,95.438,541.23,538.312,0.0
52344.0,STARLINK-3851,PAYLOAD,2022-09-27 05:16:09,15.08840208,0.0002145,53.2175,93.1002,48.2511,311.8664,5.8705e-05,6.46e-06,0.0,0 STARLINK-3851,1 52344U 22045P   22270.21954949  .00000646  00000-0  58705-4 0  9992,2 52344  53.2175  93.1002 0002145  48.2511 311.8664 15.08840208 25643,6917.88,95.438,541.229,538.261,0.0
52344.0,STARLINK-3851,PAYLOAD,2022-09-28 11:28:29,15.0883494,0.0002154,53.2172,87.4511,51.6551,308.4634,8.3663e-06,-1.55e-06,0.0,0 STARLINK-3851,1 52344U 22045P   22271.47811692 -.00000155  00000-0  83663-5 0  9996,2 52344  53.2172  87.4511 0002154  51.6551 308.4634 15.08834940 25839,6917.896,95.438,541.251,538.271,0.0
52344.0,STARLINK-3851,PAYLOAD,2022-09-28 17:50:01,15.08834201,0.0002162,53.2172,86.2616,52.1201,307.9987,1.447e-06,-2.65e-06,0.0,0 STARLINK-3851,1 52344U 22045P   22271.74307840 -.00000265  00000-0  14470-5 0  9993,2 52344  53.2172  86.2616 0002162  52.1201 307.9987 15.08834201 25878,6917.898,95.438,541.259,538.2669999999998,0.0
52344.0,STARLINK-3851,PAYLOAD,2022-09-29 11:19:16,15.08848784,0.0001899999999999,53.2185,82.9896,47.5682,312.547,-0.00017011,-2.995e-05,0.0,0 STARLINK-3851,1 52344U 22045P   22272.47171513 -.00002995  00000-0 -17011-3 0  9995,2 52344  53.2185  82.9896 0001900  47.5682 312.5470 15.08848784 25987,6917.854,95.437,541.033,538.404,0.0
52344.0,STARLINK-3851,PAYLOAD,2022-09-29 17:40:48,15.08839993,0.0001888,53.2169,81.8009,48.1488,311.9665,7.6142e-05,9.24e-06,0.0,0 STARLINK-3851,1 52344U 22045P   22272.73667405  .00000924  00000-0  76142-4 0  9993,2 52344  53.2169  81.8009 0001888  48.1488 311.9665 15.08839993 26026,6917.88,95.438,541.052,538.439,0.0
52344.0,STARLINK-3851,PAYLOAD,2022-09-30 11:10:02,15.08843936,0.0002069,53.2186,78.5319,45.7847,314.3315,0.00013812,1.911e-05,0.0,0 STARLINK-3851,1 52344U 22045P   22273.46530823  .00001911  00000-0  13812-3 0  9998,2 52344  53.2186  78.5319 0002069  45.7847 314.3315 15.08843936 26139,6917.868,95.437,541.165,538.302,0.0
52344.0,STARLINK-3851,PAYLOAD,2022-09-30 17:31:35,15.08842607,0.0002083,53.22,77.3426,46.18600000000001,313.9304,9.5505e-05,1.232e-05,0.0,0 STARLINK-3851,1 52344U 22045P   22273.73027060  .00001232  00000-0  95505-4 0  9998,2 52344  53.2200  77.3426 0002083  46.1860 313.9304 15.08842607 26179,6917.871999999999,95.437,541.178,538.2959999999998,0.0
52344.0,STARLINK-3851,PAYLOAD,2022-09-30 20:42:21,15.08841485,0.0002034,53.2179,76.7467,47.6806,312.4359,0.00010239,1.342e-05,0.0,0 STARLINK-3851,1 52344U 22045P   22273.86275043  .00001342  00000-0  10239-3 0  9990,2 52344  53.2179  76.7467 0002034  47.6806 312.4359 15.08841485 26193,6917.876,95.437,541.148,538.3340000000002,0.0
52344.0,STARLINK-3851,PAYLOAD,2022-10-01 11:00:49,15.08846985,0.0002143,53.2173,74.0706,48.1257,311.9918,3.1687e-05,2.16e-06,0.0,0 STARLINK-3851,1 52344U 22045P   22274.45890840  .00000216  00000-0  31687-4 0  9994,2 52344  53.2173  74.0706 0002143  48.1257 311.9918 15.08846985 26286,6917.859,95.437,541.207,538.242,0.0
52344.0,STARLINK-3851,PAYLOAD,2022-10-01 20:33:08,15.08846465,0.0001931,53.2175,72.2852,44.2739,315.8407,8.3493e-06,-1.55e-06,0.0,0 STARLINK-3851,1 52344U 22045P   22274.85634731 -.00000155  00000-0  83493-5 0  9999,2 52344  53.2175  72.2852 0001931  44.2739 315.8407 15.08846465 26342,6917.861,95.437,541.061,538.39,0.0
52344.0,STARLINK-3851,PAYLOAD,2022-10-02 10:51:37,15.08838455,0.0001797,53.2174,69.6071,48.1964,311.9181,-6.019e-05,-1.246e-05,0.0,0 STARLINK-3851,1 52344U 22045P   22275.45251381 -.00001246  00000-0 -60190-4 0  9993,2 52344  53.2174  69.6071 0001797  48.1964 311.9181 15.08838455 26433,6917.885,95.438,540.993,538.507,0.0
52344.0,STARLINK-3851,PAYLOAD,2022-10-02 18:48:33,15.08830178,0.000192,53.2177,68.1218,40.9899,319.1237,-7.5323e-05,-1.486e-05,0.0,0 STARLINK-3851,1 52344U 22045P   22275.78372139 -.00001486  00000-0 -75323-4 0  9994,2 52344  53.2177  68.1218 0001920  40.9899 319.1237 15.08830178 26489,6917.91,95.438,541.104,538.447,0.0
52344.0,STARLINK-3851,PAYLOAD,2022-10-02 20:23:56,15.08829213,0.0001924,53.2176,67.8245,41.7906,318.3233,-8.167e-05,-1.587e-05,0.0,0 STARLINK-3851,1 52344U 22045P   22275.84996243 -.00001587  00000-0 -81670-4 0  9993,2 52344  53.2176  67.8245 0001924  41.7906 318.3233 15.08829213 26492,6917.913000000001,95.438,541.109,538.447,0.0
52344.0,STARLINK-3851,PAYLOAD,2022-10-03 09:07:01,15.08838813,0.0001939,53.2177,65.4456,41.3465,318.7674,4.6787e-06,-2.14e-06,0.0,0 STARLINK-3851,1 52344U 22045P   22276.37987542 -.00000214  00000-0  46787-5 0  9990,2 52344  53.2177  65.4456 0001939  41.3465 318.7674 15.08838813 26571,6917.884,95.438,541.09,538.408,0.0
52344.0,STARLINK-3851,PAYLOAD,2022-10-03 17:03:56,15.08849346,0.0001913,53.2174,63.9593,44.5024,315.6121,5.0452e-05,5.15e-06,0.0,0 STARLINK-3851,1 52344U 22045P   22276.71106686  .00000515  00000-0  50452-4 0  9996,2 52344  53.2174  63.9593 0001913  44.5024 315.6121 15.08849346 26623,6917.852,95.437,541.04,538.393,0.0
52344.0,STARLINK-3851,PAYLOAD,2022-10-04 13:43:57,15.08836745,0.000198,53.2175,60.0936,43.0242,317.0905,0.00016904,2.403e-05,0.0,0 STARLINK-3851,1 52344U 22045P   22277.57219151  .00002403  00000-0  16904-3 0  9994,2 52344  53.2175  60.0936 0001980  43.0242 317.0905 15.08836745 26752,6917.89,95.438,541.125,538.386,0.0
52344.0,STARLINK-3851,PAYLOAD,2022-10-04 20:05:30,15.0883302,0.0001818,53.2184,58.9062,42.06,318.0532,0.00013165,1.807e-05,0.0,0 STARLINK-3851,1 52344U 22045P   22277.83715597  .00001807  00000-0  13165-3 0  9991,2 52344  53.2184  58.9062 0001818  42.0600 318.0532 15.08833020 26799,6917.901999999999,95.438,541.024,538.509,0.0
52344.0,STARLINK-3851,PAYLOAD,2022-10-05 08:48:35,15.08822371,0.0001641,53.2176,56.5271,39.1519,320.9592,0.00026238,3.888e-05,0.0,0 STARLINK-3851,1 52344U 22045P   22278.36708126  .00003888  00000-0  26238-3 0  9996,2 52344  53.2176  56.5271 0001641  39.1519 320.9592 15.08822371 26870,6917.934,95.439,540.935,538.664,0.0
52344.0,STARLINK-3851,PAYLOAD,2022-10-06 15:00:54,15.08839715,0.0001779,53.2181,50.8776,40.7174,319.395,3.3537e-05,2.46e-06,0.0,0 STARLINK-3851,1 52344U 22045P   22279.62563472  .00000246  00000-0  33537-4 0  9995,2 52344  53.2181  50.8776 0001779  40.7174 319.3950 15.08839715 27062,6917.880999999999,95.438,540.977,538.516,0.0
